BEIDOU-2 IGSO-1 (C06)   
1 36828U 10036A   26086.63883915 -.00000150  00000+0  00000+0 0  9997
2 36828  54.2909 163.6978 0057461 222.7538 133.1758  1.00295665 57273
BEIDOU-2 G4 (C04)       
1 37210U 10057A   26101.48107514 -.00000108  00000+0  00000+0 0  9994
2 37210   3.4807  69.3129 0006742 215.6612 247.9141  1.00271620 56625
BEIDOU-2 IGSO-2 (C07)   
1 37256U 10068A   26100.75400057 -.00000168  00000+0  00000+0 0  9999
2 37256  47.6667 272.6622 0051138 214.8589  87.0465  1.00247085 56113
BEIDOU-2 IGSO-3 (C08)   
1 37384U 11013A   26100.79916506 -.00000171  00000+0  00000+0 0  9991
2 37384  62.3219  40.7894 0034342 188.8035   4.9423  1.00284754 54980
BEIDOU-2 IGSO-4 (C09)   
1 37763U 11038A   26100.65788778 -.00000042  00000+0  00000+0 0  9999
2 37763  54.5870 166.2887 0157451 231.5040 130.8016  1.00258875 53972
BEIDOU-2 IGSO-5 (C10)   
1 37948U 11073A   26100.93740311 -.00000130  00000+0  00000+0 0  9993
2 37948  47.8035 272.3745 0109929 220.7875 137.7586  1.00264087 52452
BEIDOU-2 G5 (C05)       
1 38091U 12008A   26101.53239078  .00000061  00000+0  00000+0 0  9994
2 38091   3.4070  70.0689 0012689 265.5017 114.6288  1.00269492 51705
BEIDOU-2 M3 (C11)       
1 38250U 12018A   26101.06900490 -.00000022  00000+0  00000+0 0  9991
2 38250  55.8153 307.1375 0020033 279.1798  80.6235  1.86230224 94694
BEIDOU-2 M4 (C12)       
1 38251U 12018B   26101.00120500 -.00000021  00000+0  00000+0 0  9991
2 38251  55.7156 306.3591 0011373 286.1744  73.7292  1.86229845 94697
BEIDOU-2 M6 (C14)       
1 38775U 12050B   26099.63725626 -.00000001  00000+0  00000+0 0  9991
2 38775  56.4867  65.1597 0014466 345.9084  14.0358  1.86231025 92038
BEIDOU-2 G6 (C02)       
1 38953U 12059A   26101.53733080 -.00000170  00000+0  00000+0 0  9991
2 38953   4.2521  74.2162 0011034 314.1731  88.8463  1.00270841 49244
BEIDOU-3S IGSO-1S (C31) 
1 40549U 15019A   26100.00552815 -.00000147  00000+0  00000+0 0  9994
2 40549  49.3232 296.2806 0036225 190.5717 169.1215  1.00259306 40384
BEIDOU-3S M2S (C58)     
1 40748U 15037A   26101.20466051 -.00000020  00000+0  00000+0 0  9994
2 40748  54.9303 304.3524 0007628 275.1155  84.8234  1.86232337 72877
BEIDOU-3S M1S (C57)     
1 40749U 15037B   26099.80961206 -.00000026  00000+0  00000+0 0  9995
2 40749  54.9286 304.3882 0004659  45.3317 314.7300  1.86255005 72857
BEIDOU-3S IGSO-2S (C56) 
1 40938U 15053A   26101.39730318 -.00000130  00000+0  00000+0 0  9995
2 40938  49.3274 259.5740 0062679 190.1253 349.8012  1.00275674 38682
BEIDOU-2 IGSO-6 (C13)   
1 41434U 16021A   26098.54724387 -.00000149  00000+0  00000+0 0  9994
2 41434  60.1344  38.7321 0058579 233.1907 217.4487  1.00272319 36781
BEIDOU-2 G7 (C03)       
1 41586U 16037A   26101.54261748 -.00000351  00000+0  00000+0 0  9996
2 41586   1.5544  68.6266 0007759 351.7009  85.3365  1.00274433  6226
BEIDOU-3 M1 (C19)       
1 43001U 17069A   26098.86571080 -.00000005  00000+0  00000+0 0  9995
2 43001  56.6337  65.3664 0012429 314.2981  45.5828  1.86231409 57318
BEIDOU-3 M2 (C20)       
1 43002U 17069B   26098.26732656 -.00000010  00000+0  00000+0 0  9994
2 43002  56.6326  65.4217 0010117 334.3940  25.5369  1.86230898 57298
BEIDOU-3 M7 (C27)       
1 43107U 18003A   26100.15656403 -.00000026  00000+0  00000+0 0  9993
2 43107  54.3881 304.6868 0004048  77.2489 282.8206  1.86232577 56082
BEIDOU-3 M8 (C28)       
1 43108U 18003B   26100.63940617 -.00000024  00000+0  00000+0 0  9998
2 43108  54.3806 304.6523 0002373 293.2533  66.7467  1.86231266 56102
BEIDOU-3 M4 (C22)       
1 43207U 18018A   26101.08180804  .00000007  00000+0  00000+0 0  9998
2 43207  56.5947  65.3600 0007556 356.8742   3.1077  1.86231295 55490
BEIDOU-3 M3 (C21)       
1 43208U 18018B   26100.61129419  .00000005  00000+0  00000+0 0  9990
2 43208  56.5936  65.3795 0010158 325.6058  34.3148  1.86231415 55488
BEIDOU-3 M9 (C29)       
1 43245U 18029A   26098.14397238 -.00000035  00000+0  00000+0 0  9997
2 43245  54.2575 302.3980 0001028  56.3817 303.6458  1.86228574 54599
BEIDOU-3 M10 (C30)      
1 43246U 18029B   26101.30043325 -.00000019  00000+0  00000+0 0  9998
2 43246  54.2528 302.3145 0005135  32.3909 327.6637  1.86229431 54633
BEIDOU-2 IGSO-7 (C16)   
1 43539U 18057A   26098.60612922 -.00000109  00000+0  00000+0 0  9997
2 43539  55.1848 163.6675 0102136 237.2229 127.1361  1.00273248 28436
BEIDOU-3 M5 (C23)       
1 43581U 18062A   26099.91374859 -.00000007  00000+0  00000+0 0  9996
2 43581  54.0847 184.6257 0003504 293.0889  66.9186  1.86228896 52367
BEIDOU-3 M6 (C24)       
1 43582U 18062B   26099.77686808 -.00000007  00000+0  00000+0 0  9991
2 43582  54.0843 184.6195 0005185  31.6234 328.4524  1.86227923 52364
BEIDOU-3 M12 (C26)      
1 43602U 18067A   26099.71527321 -.00000007  00000+0  00000+0 0  9997
2 43602  54.1793 183.3624 0008068  36.4364 323.6651  1.86228001 51843
BEIDOU-3 M11 (C25)      
1 43603U 18067B   26100.92405117 -.00000003  00000+0  00000+0 0  9998
2 43603  54.1767 183.2852 0004595  25.2166 334.8517  1.86227381 51894
BEIDOU-3 M13 (C32)      
1 43622U 18072A   26098.73159044 -.00000007  00000+0  00000+0 0  9999
2 43622  56.5662  64.9498 0009025 314.2751  45.6331  1.86231315 51365
BEIDOU-3 M14 (C33)      
1 43623U 18072B   26099.67095284 -.00000001  00000+0  00000+0 0  9993
2 43623  56.5686  64.9130 0006792 337.1421  22.8124  1.86231479 51370
BEIDOU-3 M16 (C35)      
1 43647U 18078A   26101.43819188 -.00000019  00000+0  00000+0 0  9999
2 43647  54.1513 302.3255 0008329  36.4752 323.6048  1.86232404 50915
BEIDOU-3 M15 (C34)      
1 43648U 18078B   26099.41969943 -.00000027  00000+0  00000+0 0  9998
2 43648  54.1485 302.3970 0005411  46.3723 313.6925  1.86232553 50890
BEIDOU-3 G1 (C59)       
1 43683U 18085A   26101.42976227 -.00000085  00000+0  00000+0 0  9997
2 43683   2.9044  99.1827 0012830 291.4494 117.2108  1.00649740 27390
BEIDOU-3 M17 (C36)      
1 43706U 18093A   26100.14656233 -.00000007  00000+0  00000+0 0  9996
2 43706  54.1681 184.6052 0008380 292.4483  87.3741  1.86228552 50277
BEIDOU-3 M18 (C37)      
1 43707U 18093B   26099.44269747 -.00000007  00000+0  00000+0 0  9997
2 43707  54.1688 184.6211 0006669 328.3963  31.6088  1.86226595 50251
BEIDOU-3 IGSO-1 (C38)   
1 44204U 19023A   26100.70491394 -.00000205  00000+0  00000+0 0  9991
2 44204  58.6054  38.3458 0024783 235.7208 296.3383  1.00260268  6539
BEIDOU-2 G8 (C01)       
1 44231U 19027A   26101.47804179 -.00000244  00000+0  00000+0 0  9992
2 44231   1.4881  74.3180 0011345 278.6619 163.3752  1.00273856 25415
BEIDOU-3 IGSO-2 (C39)   
1 44337U 19035A   26100.79795523 -.00000120  00000+0  00000+0 0  9997
2 44337  55.2340 159.4554 0039244 214.1354 231.5650  1.00288265 24995
BEIDOU-3 M24 (C46)      
1 44542U 19061A   26099.51222014 -.00000007  00000+0  00000+0 0  9995
2 44542  54.3955 185.0441 0008100  11.2535 348.8090  1.86229160 44512
BEIDOU-3 M23 (C45)      
1 44543U 19061B   26099.67749331 -.00000007  00000+0  00000+0 0  9999
2 44543  54.3943 185.0072 0004870 357.1259  25.7688  1.86227397 44520
BEIDOU-3 IGSO-3 (C40)   
1 44709U 19073A   26100.90165407 -.00000155  00000+0  00000+0 0  9995
2 44709  54.9178 281.6213 0041548 188.5293 171.3607  1.00257502 23788
BEIDOU-3 M22 (C44)      
1 44793U 19078A   26100.96208255 -.00000020  00000+0  00000+0 0  9999
2 44793  53.9973 302.1926 0007576  43.5097 316.5724  1.86227470 43395
BEIDOU-3 M21 (C43)      
1 44794U 19078B   26097.88041618 -.00000038  00000+0  00000+0 0  9993
2 44794  53.9732 302.2636 0005406  40.1589 319.8980  1.86227987 43345
BEIDOU-3 M19 (C41)      
1 44864U 19090A   26099.92646891  .00000001  00000+0  00000+0 0  9995
2 44864  56.5015  65.0454 0020145 294.3924 194.2004  1.86231761 42965
BEIDOU-3 M20 (C42)      
1 44865U 19090B   26101.24593861  .00000006  00000+0  00000+0 0  9998
2 44865  56.5026  65.0368 0017668 306.4939  76.3401  1.86231524 42978
BEIDOU-3 G2 (C60)       
1 45344U 20017A   26101.53655079 -.00000137  00000+0  00000+0 0  9990
2 45344   2.7300  46.2418 0002907 345.1671  81.5502  1.00271684 22592
BEIDOU-3 G3 (C61)       
1 45807U 20040A   26101.54261748 -.00000350  00000+0  00000+0 0  9994
2 45807   2.2827  67.2319 0004714 332.9382 105.4044  1.00266602 21409
BEIDOU-3 G4 (C62)       
1 56564U 23066A   26101.54842417 -.00000281  00000+0  00000+0 0  9998
2 56564   0.5833 316.9653 0003204 158.1765  62.0632  1.00268200 10720
BEIDOU-3 M28 (C50)      
1 58654U 23207A   26099.56858987 -.00000004  00000+0  00000+0 0  9997
2 58654  55.6945  64.6167 0004856 316.1062  43.8399  1.86229829 15566
BEIDOU-3 M26 (C48)      
1 58655U 23207B   26099.90303892 -.00000002  00000+0  00000+0 0  9994
2 58655  55.6966  64.5919 0005386 299.5292  60.4026  1.86229797 15557
BEIDOU-3 M25 (C47)      
1 61186U 24168B   26101.07394853 -.00000022  00000+0  00000+0 0  9995
2 61186  54.5340 304.5748 0003639 320.3198 221.7724  1.86230288 10535
BEIDOU-3 M27 (C49)      
1 61187U 24168C   26101.40648988 -.00000021  00000+0  00000+0 0  9993
2 61187  54.5287 304.5464 0002749  32.9547 147.0957  1.86230386  8013
